[
  {
    "zip": "10001",
    "latitude": 40.75064,
    "longitude": -73.99728,
    "borough": "Manhattan"
  },
  {
    "zip": "10002",
    "latitude": 40.71597,
    "longitude": -73.98692,
    "borough": "Manhattan"
  },
  {
    "zip": "10003",
    "latitude": 40.73184,
    "longitude": -73.98915,
    "borough": "Manhattan"
  },
  {
    "zip": "10004",
    "latitude": 40.69431,
    "longitude": -74.01835,
    "borough": "Manhattan"
  },
  {
    "zip": "10005",
    "latitude": 40.70614,
    "longitude": -74.00862,
    "borough": "Manhattan"
  },
  {
    "zip": "10006",
    "latitude": 40.70949,
    "longitude": -74.01306,
    "borough": "Manhattan"
  },
  {
    "zip": "10007",
    "latitude": 40.71387,
    "longitude": -74.00792,
    "borough": "Manhattan"
  },
  {
    "zip": "10009",
    "latitude": 40.72639,
    "longitude": -73.97865,
    "borough": "Manhattan"
  },
  {
    "zip": "10010",
    "latitude": 40.73899,
    "longitude": -73.98243,
    "borough": "Manhattan"
  },
  {
    "zip": "10011",
    "latitude": 40.74173,
    "longitude": -74.00037,
    "borough": "Manhattan"
  },
  {
    "zip": "10012",
    "latitude": 40.7256,
    "longitude": -73.99794,
    "borough": "Manhattan"
  },
  {
    "zip": "10013",
    "latitude": 40.72001,
    "longitude": -74.00472,
    "borough": "Manhattan"
  },
  {
    "zip": "10014",
    "latitude": 40.73407,
    "longitude": -74.00601,
    "borough": "Manhattan"
  },
  {
    "zip": "10016",
    "latitude": 40.74515,
    "longitude": -73.97807,
    "borough": "Manhattan"
  },
  {
    "zip": "10017",
    "latitude": 40.75235,
    "longitude": -73.9726,
    "borough": "Manhattan"
  },
  {
    "zip": "10018",
    "latitude": 40.75536,
    "longitude": -73.99265,
    "borough": "Manhattan"
  },
  {
    "zip": "10019",
    "latitude": 40.76586,
    "longitude": -73.9853,
    "borough": "Manhattan"
  },
  {
    "zip": "10020",
    "latitude": 40.75917,
    "longitude": -73.98071,
    "borough": "Manhattan"
  },
  {
    "zip": "10021",
    "latitude": 40.76963,
    "longitude": -73.95899,
    "borough": "Manhattan"
  },
  {
    "zip": "10022",
    "latitude": 40.75856,
    "longitude": -73.96787,
    "borough": "Manhattan"
  },
  {
    "zip": "10023",
    "latitude": 40.77464,
    "longitude": -73.97836,
    "borough": "Manhattan"
  },
  {
    "zip": "10024",
    "latitude": 40.78534,
    "longitude": -73.97138,
    "borough": "Manhattan"
  },
  {
    "zip": "10025",
    "latitude": 40.79825,
    "longitude": -73.96831,
    "borough": "Manhattan"
  },
  {
    "zip": "10026",
    "latitude": 40.80302,
    "longitude": -73.95348,
    "borough": "Manhattan"
  },
  {
    "zip": "10027",
    "latitude": 40.81187,
    "longitude": -73.95459,
    "borough": "Manhattan"
  },
  {
    "zip": "10028",
    "latitude": 40.77643,
    "longitude": -73.95339,
    "borough": "Manhattan"
  },
  {
    "zip": "10029",
    "latitude": 40.79265,
    "longitude": -73.94788,
    "borough": "Manhattan"
  },
  {
    "zip": "10030",
    "latitude": 40.81826,
    "longitude": -73.94283,
    "borough": "Manhattan"
  },
  {
    "zip": "10031",
    "latitude": 40.82485,
    "longitude": -73.95023,
    "borough": "Manhattan"
  },
  {
    "zip": "10032",
    "latitude": 40.839,
    "longitude": -73.94282,
    "borough": "Manhattan"
  },
  {
    "zip": "10033",
    "latitude": 40.84744,
    "longitude": -73.93549,
    "borough": "Manhattan"
  },
  {
    "zip": "10034",
    "latitude": 40.86749,
    "longitude": -73.92358,
    "borough": "Manhattan"
  },
  {
    "zip": "10035",
    "latitude": 40.79538,
    "longitude": -73.92965,
    "borough": "Manhattan"
  },
  {
    "zip": "10036",
    "latitude": 40.75976,
    "longitude": -73.99064,
    "borough": "Manhattan"
  },
  {
    "zip": "10037",
    "latitude": 40.81302,
    "longitude": -73.93776,
    "borough": "Manhattan"
  },
  {
    "zip": "10038",
    "latitude": 40.70914,
    "longitude": -74.00298,
    "borough": "Manhattan"
  },
  {
    "zip": "10039",
    "latitude": 40.82631,
    "longitude": -73.93752,
    "borough": "Manhattan"
  },
  {
    "zip": "10040",
    "latitude": 40.85807,
    "longitude": -73.9296,
    "borough": "Manhattan"
  },
  {
    "zip": "10044",
    "latitude": 40.76209,
    "longitude": -73.94981,
    "borough": "Manhattan"
  },
  {
    "zip": "10065",
    "latitude": 40.76472,
    "longitude": -73.96332,
    "borough": "Manhattan"
  },
  {
    "zip": "10069",
    "latitude": 40.77752,
    "longitude": -73.98875,
    "borough": "Manhattan"
  },
  {
    "zip": "10075",
    "latitude": 40.77342,
    "longitude": -73.95642,
    "borough": "Manhattan"
  },
  {
    "zip": "10103",
    "latitude": 40.76078,
    "longitude": -73.97767,
    "borough": "Manhattan"
  },
  {
    "zip": "10110",
    "latitude": 40.7545,
    "longitude": -73.98226,
    "borough": "Manhattan"
  },
  {
    "zip": "10111",
    "latitude": 40.75953,
    "longitude": -73.97858,
    "borough": "Manhattan"
  },
  {
    "zip": "10112",
    "latitude": 40.75891,
    "longitude": -73.97904,
    "borough": "Manhattan"
  },
  {
    "zip": "10115",
    "latitude": 40.81085,
    "longitude": -73.96374,
    "borough": "Manhattan"
  },
  {
    "zip": "10119",
    "latitude": 40.75064,
    "longitude": -73.99273,
    "borough": "Manhattan"
  },
  {
    "zip": "10128",
    "latitude": 40.78151,
    "longitude": -73.95018,
    "borough": "Manhattan"
  },
  {
    "zip": "10152",
    "latitude": 40.75872,
    "longitude": -73.9718,
    "borough": "Manhattan"
  },
  {
    "zip": "10153",
    "latitude": 40.76362,
    "longitude": -73.97244,
    "borough": "Manhattan"
  },
  {
    "zip": "10154",
    "latitude": 40.75778,
    "longitude": -73.97249,
    "borough": "Manhattan"
  },
  {
    "zip": "10162",
    "latitude": 40.76936,
    "longitude": -73.94986,
    "borough": "Manhattan"
  },
  {
    "zip": "10165",
    "latitude": 40.75213,
    "longitude": -73.97872,
    "borough": "Manhattan"
  },
  {
    "zip": "10167",
    "latitude": 40.75465,
    "longitude": -73.97477,
    "borough": "Manhattan"
  },
  {
    "zip": "10168",
    "latitude": 40.75145,
    "longitude": -73.9771,
    "borough": "Manhattan"
  },
  {
    "zip": "10169",
    "latitude": 40.75467,
    "longitude": -73.97643,
    "borough": "Manhattan"
  },
  {
    "zip": "10170",
    "latitude": 40.75263,
    "longitude": -73.97588,
    "borough": "Manhattan"
  },
  {
    "zip": "10171",
    "latitude": 40.7559,
    "longitude": -73.97386,
    "borough": "Manhattan"
  },
  {
    "zip": "10172",
    "latitude": 40.75527,
    "longitude": -73.97431,
    "borough": "Manhattan"
  },
  {
    "zip": "10173",
    "latitude": 40.75379,
    "longitude": -73.97961,
    "borough": "Manhattan"
  },
  {
    "zip": "10174",
    "latitude": 40.75144,
    "longitude": -73.975,
    "borough": "Manhattan"
  },
  {
    "zip": "10177",
    "latitude": 40.75498,
    "longitude": -73.97589,
    "borough": "Manhattan"
  },
  {
    "zip": "10199",
    "latitude": 40.75138,
    "longitude": -73.99715,
    "borough": "Manhattan"
  },
  {
    "zip": "10271",
    "latitude": 40.70844,
    "longitude": -74.01033,
    "borough": "Manhattan"
  },
  {
    "zip": "10278",
    "latitude": 40.71513,
    "longitude": -74.00373,
    "borough": "Manhattan"
  },
  {
    "zip": "10279",
    "latitude": 40.71263,
    "longitude": -74.00867,
    "borough": "Manhattan"
  },
  {
    "zip": "10280",
    "latitude": 40.70985,
    "longitude": -74.01651,
    "borough": "Manhattan"
  },
  {
    "zip": "10282",
    "latitude": 40.71655,
    "longitude": -74.01495,
    "borough": "Manhattan"
  },
  {
    "zip": "10301",
    "latitude": 40.62803,
    "longitude": -74.09564,
    "borough": "Staten Island"
  },
  {
    "zip": "10302",
    "latitude": 40.63055,
    "longitude": -74.13776,
    "borough": "Staten Island"
  },
  {
    "zip": "10303",
    "latitude": 40.63223,
    "longitude": -74.16903,
    "borough": "Staten Island"
  },
  {
    "zip": "10304",
    "latitude": 40.60671,
    "longitude": -74.0931,
    "borough": "Staten Island"
  },
  {
    "zip": "10305",
    "latitude": 40.59592,
    "longitude": -74.07539,
    "borough": "Staten Island"
  },
  {
    "zip": "10306",
    "latitude": 40.57149,
    "longitude": -74.1243,
    "borough": "Staten Island"
  },
  {
    "zip": "10307",
    "latitude": 40.50817,
    "longitude": -74.24254,
    "borough": "Staten Island"
  },
  {
    "zip": "10308",
    "latitude": 40.55213,
    "longitude": -74.15029,
    "borough": "Staten Island"
  },
  {
    "zip": "10309",
    "latitude": 40.53001,
    "longitude": -74.21912,
    "borough": "Staten Island"
  },
  {
    "zip": "10310",
    "latitude": 40.63243,
    "longitude": -74.11653,
    "borough": "Staten Island"
  },
  {
    "zip": "10311",
    "latitude": 40.60523,
    "longitude": -74.17956,
    "borough": "Staten Island"
  },
  {
    "zip": "10312",
    "latitude": 40.54489,
    "longitude": -74.18084,
    "borough": "Staten Island"
  },
  {
    "zip": "10314",
    "latitude": 40.60086,
    "longitude": -74.16306,
    "borough": "Staten Island"
  },
  {
    "zip": "10451",
    "latitude": 40.82097,
    "longitude": -73.92383,
    "borough": "Bronx"
  },
  {
    "zip": "10452",
    "latitude": 40.8378,
    "longitude": -73.92333,
    "borough": "Bronx"
  },
  {
    "zip": "10453",
    "latitude": 40.85248,
    "longitude": -73.9133,
    "borough": "Bronx"
  },
  {
    "zip": "10454",
    "latitude": 40.8056,
    "longitude": -73.91664,
    "borough": "Bronx"
  },
  {
    "zip": "10455",
    "latitude": 40.8148,
    "longitude": -73.90862,
    "borough": "Bronx"
  },
  {
    "zip": "10456",
    "latitude": 40.83064,
    "longitude": -73.90812,
    "borough": "Bronx"
  },
  {
    "zip": "10457",
    "latitude": 40.84571,
    "longitude": -73.89794,
    "borough": "Bronx"
  },
  {
    "zip": "10458",
    "latitude": 40.86249,
    "longitude": -73.88643,
    "borough": "Bronx"
  },
  {
    "zip": "10459",
    "latitude": 40.82572,
    "longitude": -73.89295,
    "borough": "Bronx"
  },
  {
    "zip": "10460",
    "latitude": 40.84273,
    "longitude": -73.87891,
    "borough": "Bronx"
  },
  {
    "zip": "10461",
    "latitude": 40.84671,
    "longitude": -73.84079,
    "borough": "Bronx"
  },
  {
    "zip": "10462",
    "latitude": 40.84297,
    "longitude": -73.85873,
    "borough": "Bronx"
  },
  {
    "zip": "10463",
    "latitude": 40.88841,
    "longitude": -73.89905,
    "borough": "Bronx"
  },
  {
    "zip": "10464",
    "latitude": 40.86821,
    "longitude": -73.80044,
    "borough": "Bronx"
  },
  {
    "zip": "10465",
    "latitude": 40.8286,
    "longitude": -73.82179,
    "borough": "Bronx"
  },
  {
    "zip": "10466",
    "latitude": 40.89104,
    "longitude": -73.8461,
    "borough": "Bronx"
  },
  {
    "zip": "10467",
    "latitude": 40.87522,
    "longitude": -73.872,
    "borough": "Bronx"
  },
  {
    "zip": "10468",
    "latitude": 40.8681,
    "longitude": -73.89985,
    "borough": "Bronx"
  },
  {
    "zip": "10469",
    "latitude": 40.86851,
    "longitude": -73.84666,
    "borough": "Bronx"
  },
  {
    "zip": "10470",
    "latitude": 40.89598,
    "longitude": -73.86805,
    "borough": "Bronx"
  },
  {
    "zip": "10471",
    "latitude": 40.90002,
    "longitude": -73.9067,
    "borough": "Bronx"
  },
  {
    "zip": "10472",
    "latitude": 40.82968,
    "longitude": -73.86942,
    "borough": "Bronx"
  },
  {
    "zip": "10473",
    "latitude": 40.81817,
    "longitude": -73.85889,
    "borough": "Bronx"
  },
  {
    "zip": "10474",
    "latitude": 40.81061,
    "longitude": -73.8846,
    "borough": "Bronx"
  },
  {
    "zip": "10475",
    "latitude": 40.87528,
    "longitude": -73.82702,
    "borough": "Bronx"
  },
  {
    "zip": "11001",
    "latitude": 40.72356,
    "longitude": -73.70451,
    "borough": "Queens"
  },
  {
    "zip": "11003",
    "latitude": 40.70143,
    "longitude": -73.7078,
    "borough": "Queens"
  },
  {
    "zip": "11004",
    "latitude": 40.74621,
    "longitude": -73.71147,
    "borough": "Queens"
  },
  {
    "zip": "11005",
    "latitude": 40.75661,
    "longitude": -73.71424,
    "borough": "Queens"
  },
  {
    "zip": "11010",
    "latitude": 40.70066,
    "longitude": -73.67514,
    "borough": "Queens"
  },
  {
    "zip": "11020",
    "latitude": 40.77098,
    "longitude": -73.71293,
    "borough": "Queens"
  },
  {
    "zip": "11021",
    "latitude": 40.78644,
    "longitude": -73.7289,
    "borough": "Queens"
  },
  {
    "zip": "11023",
    "latitude": 40.7994,
    "longitude": -73.73282,
    "borough": "Queens"
  },
  {
    "zip": "11024",
    "latitude": 40.81642,
    "longitude": -73.74205,
    "borough": "Queens"
  },
  {
    "zip": "11030",
    "latitude": 40.79293,
    "longitude": -73.68868,
    "borough": "Queens"
  },
  {
    "zip": "11040",
    "latitude": 40.74572,
    "longitude": -73.67979,
    "borough": "Queens"
  },
  {
    "zip": "11042",
    "latitude": 40.75854,
    "longitude": -73.6975,
    "borough": "Queens"
  },
  {
    "zip": "11050",
    "latitude": 40.83815,
    "longitude": -73.69113,
    "borough": "Queens"
  },
  {
    "zip": "11096",
    "latitude": 40.62143,
    "longitude": -73.75292,
    "borough": "Queens"
  },
  {
    "zip": "11101",
    "latitude": 40.74679,
    "longitude": -73.93916,
    "borough": "Queens"
  },
  {
    "zip": "11102",
    "latitude": 40.77161,
    "longitude": -73.92619,
    "borough": "Queens"
  },
  {
    "zip": "11103",
    "latitude": 40.76261,
    "longitude": -73.91334,
    "borough": "Queens"
  },
  {
    "zip": "11104",
    "latitude": 40.74484,
    "longitude": -73.92049,
    "borough": "Queens"
  },
  {
    "zip": "11105",
    "latitude": 40.779,
    "longitude": -73.90652,
    "borough": "Queens"
  },
  {
    "zip": "11106",
    "latitude": 40.76191,
    "longitude": -73.93169,
    "borough": "Queens"
  },
  {
    "zip": "11109",
    "latitude": 40.7463,
    "longitude": -73.95699,
    "borough": "Queens"
  },
  {
    "zip": "11201",
    "latitude": 40.69477,
    "longitude": -73.99031,
    "borough": "Brooklyn"
  },
  {
    "zip": "11203",
    "latitude": 40.64958,
    "longitude": -73.93431,
    "borough": "Brooklyn"
  },
  {
    "zip": "11204",
    "latitude": 40.61883,
    "longitude": -73.98496,
    "borough": "Brooklyn"
  },
  {
    "zip": "11205",
    "latitude": 40.69654,
    "longitude": -73.96807,
    "borough": "Brooklyn"
  },
  {
    "zip": "11206",
    "latitude": 40.7019,
    "longitude": -73.94254,
    "borough": "Brooklyn"
  },
  {
    "zip": "11207",
    "latitude": 40.67016,
    "longitude": -73.89383,
    "borough": "Brooklyn"
  },
  {
    "zip": "11208",
    "latitude": 40.67481,
    "longitude": -73.87243,
    "borough": "Brooklyn"
  },
  {
    "zip": "11209",
    "latitude": 40.62175,
    "longitude": -74.03013,
    "borough": "Brooklyn"
  },
  {
    "zip": "11210",
    "latitude": 40.62801,
    "longitude": -73.94631,
    "borough": "Brooklyn"
  },
  {
    "zip": "11211",
    "latitude": 40.71428,
    "longitude": -73.94602,
    "borough": "Brooklyn"
  },
  {
    "zip": "11212",
    "latitude": 40.6629,
    "longitude": -73.91308,
    "borough": "Brooklyn"
  },
  {
    "zip": "11213",
    "latitude": 40.67117,
    "longitude": -73.93632,
    "borough": "Brooklyn"
  },
  {
    "zip": "11214",
    "latitude": 40.59928,
    "longitude": -73.99644,
    "borough": "Brooklyn"
  },
  {
    "zip": "11215",
    "latitude": 40.66255,
    "longitude": -73.98687,
    "borough": "Brooklyn"
  },
  {
    "zip": "11216",
    "latitude": 40.68085,
    "longitude": -73.94929,
    "borough": "Brooklyn"
  },
  {
    "zip": "11217",
    "latitude": 40.68242,
    "longitude": -73.97943,
    "borough": "Brooklyn"
  },
  {
    "zip": "11218",
    "latitude": 40.64315,
    "longitude": -73.97645,
    "borough": "Brooklyn"
  },
  {
    "zip": "11219",
    "latitude": 40.63267,
    "longitude": -73.99672,
    "borough": "Brooklyn"
  },
  {
    "zip": "11220",
    "latitude": 40.64142,
    "longitude": -74.01741,
    "borough": "Brooklyn"
  },
  {
    "zip": "11221",
    "latitude": 40.6914,
    "longitude": -73.92764,
    "borough": "Brooklyn"
  },
  {
    "zip": "11222",
    "latitude": 40.72862,
    "longitude": -73.94764,
    "borough": "Brooklyn"
  },
  {
    "zip": "11223",
    "latitude": 40.59711,
    "longitude": -73.97344,
    "borough": "Brooklyn"
  },
  {
    "zip": "11224",
    "latitude": 40.57652,
    "longitude": -73.9891,
    "borough": "Brooklyn"
  },
  {
    "zip": "11225",
    "latitude": 40.6631,
    "longitude": -73.95392,
    "borough": "Brooklyn"
  },
  {
    "zip": "11226",
    "latitude": 40.64636,
    "longitude": -73.95666,
    "borough": "Brooklyn"
  },
  {
    "zip": "11228",
    "latitude": 40.61678,
    "longitude": -74.01337,
    "borough": "Brooklyn"
  },
  {
    "zip": "11229",
    "latitude": 40.60047,
    "longitude": -73.94453,
    "borough": "Brooklyn"
  },
  {
    "zip": "11230",
    "latitude": 40.6221,
    "longitude": -73.96525,
    "borough": "Brooklyn"
  },
  {
    "zip": "11231",
    "latitude": 40.67603,
    "longitude": -74.00644,
    "borough": "Brooklyn"
  },
  {
    "zip": "11232",
    "latitude": 40.65692,
    "longitude": -74.00727,
    "borough": "Brooklyn"
  },
  {
    "zip": "11233",
    "latitude": 40.67827,
    "longitude": -73.91994,
    "borough": "Brooklyn"
  },
  {
    "zip": "11234",
    "latitude": 40.6072,
    "longitude": -73.91107,
    "borough": "Brooklyn"
  },
  {
    "zip": "11235",
    "latitude": 40.58411,
    "longitude": -73.94331,
    "borough": "Brooklyn"
  },
  {
    "zip": "11236",
    "latitude": 40.63951,
    "longitude": -73.90098,
    "borough": "Brooklyn"
  },
  {
    "zip": "11237",
    "latitude": 40.70427,
    "longitude": -73.92108,
    "borough": "Brooklyn"
  },
  {
    "zip": "11238",
    "latitude": 40.67105,
    "longitude": -73.96636,
    "borough": "Brooklyn"
  },
  {
    "zip": "11239",
    "latitude": 40.64733,
    "longitude": -73.87136,
    "borough": "Brooklyn"
  },
  {
    "zip": "11249",
    "latitude": 40.71121,
    "longitude": -73.96318,
    "borough": "Brooklyn"
  },
  {
    "zip": "11354",
    "latitude": 40.7686,
    "longitude": -73.82743,
    "borough": "Queens"
  },
  {
    "zip": "11355",
    "latitude": 40.75143,
    "longitude": -73.82125,
    "borough": "Queens"
  },
  {
    "zip": "11356",
    "latitude": 40.78492,
    "longitude": -73.84149,
    "borough": "Queens"
  },
  {
    "zip": "11357",
    "latitude": 40.78636,
    "longitude": -73.81094,
    "borough": "Queens"
  },
  {
    "zip": "11358",
    "latitude": 40.76038,
    "longitude": -73.79648,
    "borough": "Queens"
  },
  {
    "zip": "11359",
    "latitude": 40.79147,
    "longitude": -73.77662,
    "borough": "Queens"
  },
  {
    "zip": "11360",
    "latitude": 40.7805,
    "longitude": -73.78159,
    "borough": "Queens"
  },
  {
    "zip": "11361",
    "latitude": 40.76393,
    "longitude": -73.77294,
    "borough": "Queens"
  },
  {
    "zip": "11362",
    "latitude": 40.75899,
    "longitude": -73.73583,
    "borough": "Queens"
  },
  {
    "zip": "11363",
    "latitude": 40.77251,
    "longitude": -73.74708,
    "borough": "Queens"
  },
  {
    "zip": "11364",
    "latitude": 40.74625,
    "longitude": -73.75598,
    "borough": "Queens"
  },
  {
    "zip": "11365",
    "latitude": 40.73983,
    "longitude": -73.79499,
    "borough": "Queens"
  },
  {
    "zip": "11366",
    "latitude": 40.73112,
    "longitude": -73.7804,
    "borough": "Queens"
  },
  {
    "zip": "11367",
    "latitude": 40.73044,
    "longitude": -73.82274,
    "borough": "Queens"
  },
  {
    "zip": "11368",
    "latitude": 40.74962,
    "longitude": -73.85264,
    "borough": "Queens"
  },
  {
    "zip": "11369",
    "latitude": 40.76345,
    "longitude": -73.87222,
    "borough": "Queens"
  },
  {
    "zip": "11370",
    "latitude": 40.77554,
    "longitude": -73.88766,
    "borough": "Queens"
  },
  {
    "zip": "11371",
    "latitude": 40.77445,
    "longitude": -73.87316,
    "borough": "Queens"
  },
  {
    "zip": "11372",
    "latitude": 40.75172,
    "longitude": -73.88367,
    "borough": "Queens"
  },
  {
    "zip": "11373",
    "latitude": 40.73892,
    "longitude": -73.87854,
    "borough": "Queens"
  },
  {
    "zip": "11374",
    "latitude": 40.72647,
    "longitude": -73.86144,
    "borough": "Queens"
  },
  {
    "zip": "11375",
    "latitude": 40.72315,
    "longitude": -73.84373,
    "borough": "Queens"
  },
  {
    "zip": "11377",
    "latitude": 40.74483,
    "longitude": -73.90516,
    "borough": "Queens"
  },
  {
    "zip": "11378",
    "latitude": 40.72493,
    "longitude": -73.91034,
    "borough": "Queens"
  },
  {
    "zip": "11379",
    "latitude": 40.71709,
    "longitude": -73.88056,
    "borough": "Queens"
  },
  {
    "zip": "11385",
    "latitude": 40.70103,
    "longitude": -73.89011,
    "borough": "Queens"
  },
  {
    "zip": "11411",
    "latitude": 40.69406,
    "longitude": -73.73623,
    "borough": "Queens"
  },
  {
    "zip": "11412",
    "latitude": 40.69804,
    "longitude": -73.759,
    "borough": "Queens"
  },
  {
    "zip": "11413",
    "latitude": 40.67002,
    "longitude": -73.75116,
    "borough": "Queens"
  },
  {
    "zip": "11414",
    "latitude": 40.65818,
    "longitude": -73.8448,
    "borough": "Queens"
  },
  {
    "zip": "11415",
    "latitude": 40.70808,
    "longitude": -73.82801,
    "borough": "Queens"
  },
  {
    "zip": "11416",
    "latitude": 40.68458,
    "longitude": -73.84967,
    "borough": "Queens"
  },
  {
    "zip": "11417",
    "latitude": 40.67641,
    "longitude": -73.84455,
    "borough": "Queens"
  },
  {
    "zip": "11418",
    "latitude": 40.70032,
    "longitude": -73.83603,
    "borough": "Queens"
  },
  {
    "zip": "11419",
    "latitude": 40.68863,
    "longitude": -73.82302,
    "borough": "Queens"
  },
  {
    "zip": "11420",
    "latitude": 40.67352,
    "longitude": -73.8177,
    "borough": "Queens"
  },
  {
    "zip": "11421",
    "latitude": 40.69403,
    "longitude": -73.85865,
    "borough": "Queens"
  },
  {
    "zip": "11422",
    "latitude": 40.66053,
    "longitude": -73.73658,
    "borough": "Queens"
  },
  {
    "zip": "11423",
    "latitude": 40.71564,
    "longitude": -73.76826,
    "borough": "Queens"
  },
  {
    "zip": "11424",
    "latitude": 40.71397,
    "longitude": -73.82809,
    "borough": "Queens"
  },
  {
    "zip": "11426",
    "latitude": 40.73641,
    "longitude": -73.7223,
    "borough": "Queens"
  },
  {
    "zip": "11427",
    "latitude": 40.73094,
    "longitude": -73.74569,
    "borough": "Queens"
  },
  {
    "zip": "11428",
    "latitude": 40.72099,
    "longitude": -73.74222,
    "borough": "Queens"
  },
  {
    "zip": "11429",
    "latitude": 40.70958,
    "longitude": -73.73843,
    "borough": "Queens"
  },
  {
    "zip": "11430",
    "latitude": 40.64703,
    "longitude": -73.78717,
    "borough": "Queens"
  },
  {
    "zip": "11432",
    "latitude": 40.71491,
    "longitude": -73.79295,
    "borough": "Queens"
  },
  {
    "zip": "11433",
    "latitude": 40.69805,
    "longitude": -73.78675,
    "borough": "Queens"
  },
  {
    "zip": "11434",
    "latitude": 40.67683,
    "longitude": -73.77623,
    "borough": "Queens"
  },
  {
    "zip": "11435",
    "latitude": 40.70111,
    "longitude": -73.80968,
    "borough": "Queens"
  },
  {
    "zip": "11436",
    "latitude": 40.67587,
    "longitude": -73.79664,
    "borough": "Queens"
  },
  {
    "zip": "11439",
    "latitude": 40.72195,
    "longitude": -73.79455,
    "borough": "Queens"
  },
  {
    "zip": "11451",
    "latitude": 40.7012,
    "longitude": -73.79579,
    "borough": "Queens"
  },
  {
    "zip": "11691",
    "latitude": 40.60152,
    "longitude": -73.76173,
    "borough": "Queens"
  },
  {
    "zip": "11692",
    "latitude": 40.59373,
    "longitude": -73.79201,
    "borough": "Queens"
  },
  {
    "zip": "11693",
    "latitude": 40.59649,
    "longitude": -73.81663,
    "borough": "Queens"
  },
  {
    "zip": "11694",
    "latitude": 40.57532,
    "longitude": -73.85099,
    "borough": "Queens"
  },
  {
    "zip": "11697",
    "latitude": 40.55749,
    "longitude": -73.91361,
    "borough": "Queens"
  }
]